0 COSMOS 1741 DEB *
1 18274U 86030E   13281.81166885  .00001103  00000-0  26835-3 0  5041
2 18274 074.0495 302.7300 0034335 312.1167 105.7370 14.53672177432495
0 COSMOS 1741 DEB *
1 18274U 86030E   13284.00694150  .00001374  00000-0  33249-3 0  5054
2 18274 074.0492 298.5864 0034392 307.5818 073.9415 14.53680715432812
0 COSMOS 1741 DEB *
1 18274U 86030E   13286.16069736  .00001253  00000-0  30390-3 0  5060
2 18274 074.0491 294.5212 0034417 303.1196 184.9495 14.53686743433126
0 COSMOS 1741 DEB *
1 18274U 86030E   13288.43716525  .00002113  00000-0  50729-3 0  5072
2 18274 074.0492 290.2238 0034439 298.4200 218.1696 14.53695032433454
0 COSMOS 1741 DEB *
1 18274U 86030E   13291.10407953  .00001731  00000-0  41678-3 0  5081
2 18274 074.0496 285.1894 0034452 292.9915 134.6933 14.53705363433844
0 COSMOS 1741 DEB *
1 18274U 86030E   13293.10991064  .00002130  00000-0  51133-3 0  5096
2 18274 074.0498 281.4032 0034443 288.7884 191.8172 14.53711489434136
0 COSMOS 1741 DEB *
1 18274U 86030E   13295.38123358  .00002309  00000-0  55344-3 0  5109
2 18274 074.0498 277.1160 0034399 284.1546 198.2728 14.53722219434462
